NORAD_CAT_ID,OBJECT_NAME,OBJECT_TYPE,EPOCH,MEAN_MOTION,ECCENTRICITY,INCLINATION,RA_OF_ASC_NODE,ARG_OF_PERICENTER,MEAN_ANOMALY,BSTAR,MEAN_MOTION_DOT,MEAN_MOTION_DDOT,TLE_LINE0,TLE_LINE1,TLE_LINE2,SEMIMAJOR_AXIS,PERIOD,APOGEE,PERIGEE,DECAYED
53985.0,STARLINK-5147,PAYLOAD,2023-06-09 09:17:07,15.08845215,0.0001113,53.2178,42.8452,80.409,279.7028,7.1981e-06,-1.73e-06,0.0,0 STARLINK-5147,1 53985U 22125X   23160.38688734 -.00000173  00000-0  71981-5 0  9994,2 53985  53.2178  42.8452 0001113  80.4090 279.7028 15.08845215 37846,6917.864,95.437,540.499,538.959,0.0
53985.0,STARLINK-5147,PAYLOAD,2023-06-09 18:49:26,15.08831329,0.000112,53.218,41.0614,82.5129,277.5991,5.1865e-05,5.38e-06,0.0,0 STARLINK-5147,1 53985U 22125X   23160.78433689  .00000538  00000-0  51865-4 0  9997,2 53985  53.2180  41.0614 0001120  82.5129 277.5991 15.08831329 37907,6917.907,95.438,540.547,538.997,0.0
53985.0,STARLINK-5147,PAYLOAD,2023-06-10 01:10:58,15.08839282,0.0001176,53.2177,39.8722,81.8854,278.2272,0.00011415,1.529e-05,0.0,0 STARLINK-5147,1 53985U 22125X   23161.04929117  .00001529  00000-0  11415-3 0  9990,2 53985  53.2177  39.8722 0001176  81.8854 278.2272 15.08839282 38015,6917.883,95.438,540.561,538.934,0.0
53985.0,STARLINK-5147,PAYLOAD,2023-06-10 09:07:54,15.08837133,0.0001215,53.218,38.3845,78.7783,281.3346,3.9593e-05,3.42e-06,0.0,0 STARLINK-5147,1 53985U 22125X   23161.38049507  .00000342  00000-0  39593-4 0  9993,2 53985  53.2180  38.3845 0001215  78.7783 281.3346 15.08837133 37995,6917.889,95.438,540.595,538.914,0.0
53985.0,STARLINK-5147,PAYLOAD,2023-06-10 21:50:59,15.08846289,0.0001215,53.2177,36.0055,88.4343,271.6788,4.7561e-05,4.69e-06,0.0,0 STARLINK-5147,1 53985U 22125X   23161.91040957  .00000469  00000-0  47561-4 0  9996,2 53985  53.2177  36.0055 0001215  88.4343 271.6788 15.08846289 38073,6917.861,95.437,540.567,538.886,0.0
53985.0,STARLINK-5147,PAYLOAD,2023-06-11 08:58:41,15.08847042,0.0001163,53.2179,33.9244,89.9027,270.2099,1.885e-05,1.2e-07,0.0,0 STARLINK-5147,1 53985U 22125X   23162.37408872  .00000012  00000-0  18850-4 0  9994,2 53985  53.2179  33.9244 0001163  89.9027 270.2099 15.08847042 38212,6917.859,95.437,540.528,538.919,0.0
53985.0,STARLINK-5147,PAYLOAD,2023-06-11 15:20:14,15.08824784,0.0001239,53.2181,32.7348,89.6526,270.4608,0.00026736,3.968e-05,0.0,0 STARLINK-5147,1 53985U 22125X   23162.63905639  .00003968  00000-0  26736-3 0  9990,2 53985  53.2181  32.7348 0001239  89.6526 270.4608 15.08824784 38252,6917.927,95.439,540.649,538.935,0.0
53985.0,STARLINK-5147,PAYLOAD,2023-06-11 21:41:46,15.08844457,0.0001282,53.2188,31.5449,89.4658,270.6481,0.00013317,1.832e-05,0.0,0 STARLINK-5147,1 53985U 22125X   23162.90400763  .00001832  00000-0  13317-3 0  9997,2 53985  53.2188  31.5449 0001282  89.4658 270.6481 15.08844457 38227,6917.867,95.437,540.619,538.845,0.0
53985.0,STARLINK-5147,PAYLOAD,2023-06-11 23:17:09,15.08848631,0.0001381,53.2185,31.2473,82.5932,277.5217,8.8596e-05,1.123e-05,0.0,0 STARLINK-5147,1 53985U 22125X   23162.97024667  .00001123  00000-0  88596-4 0  9994,2 53985  53.2185  31.2473 0001381  82.5932 277.5217 15.08848631 38307,6917.854,95.437,540.674,538.764,0.0
53985.0,STARLINK-5147,PAYLOAD,2023-06-12 18:21:47,15.08831471,0.000132,53.2183,27.6788,90.3215,269.7929,0.00010546,1.391e-05,0.0,0 STARLINK-5147,1 53985U 22125X   23163.76513679  .00001391  00000-0  10546-3 0  9994,2 53985  53.2183  27.6788 0001320  90.3215 269.7929 15.08831471 38427,6917.906,95.438,540.685,538.858,0.0
53985.0,STARLINK-5147,PAYLOAD,2023-06-12 21:32:33,15.08840642,0.0001146,53.2182,27.0848,92.3732,267.7391,5.4932e-05,5.87e-06,0.0,0 STARLINK-5147,1 53985U 22125X   23163.89761170  .00000587  00000-0  54932-4 0  9993,2 53985  53.2182  27.0848 0001146  92.3732 267.7391 15.08840642 38374,6917.878,95.438,540.536,538.951,0.0
53985.0,STARLINK-5147,PAYLOAD,2023-06-13 00:43:19,15.08844104,0.0001193,53.2183,26.4891,96.0393,264.0735,5.7942e-05,6.35e-06,0.0,0 STARLINK-5147,1 53985U 22125X   23164.03008921  .00000635  00000-0  57942-4 0  9996,2 53985  53.2183  26.4891 0001193  96.0393 264.0735 15.08844104 38461,6917.868,95.437,540.558,538.908,0.0
53985.0,STARLINK-5147,PAYLOAD,2023-06-13 18:12:34,15.0883634,0.0001129,53.2185,23.2172,100.5244,259.5876,-3.2374e-06,-3.39e-06,0.0,0 STARLINK-5147,1 53985U 22125X   23164.75873557 -.00000339  00000-0 -32374-5 0  9996,2 53985  53.2185  23.2172 0001129 100.5244 259.5876 15.08836340 38575,6917.892,95.438,540.538,538.976,0.0
53985.0,STARLINK-5147,PAYLOAD,2023-06-14 00:34:06,15.08841495,0.0001197,53.2187,22.0264,101.0776,259.0351,2.1621e-05,5.6e-07,0.0,0 STARLINK-5147,1 53985U 22125X   23165.02369167  .00000056  00000-0  21621-4 0  9990,2 53985  53.2187  22.0264 0001197 101.0776 259.0351 15.08841495 38612,6917.876,95.437,540.569,538.913,0.0
53985.0,STARLINK-5147,PAYLOAD,2023-06-14 21:14:08,15.08837027,0.0001116,53.218,18.1628,95.6944,264.4175,1.4623e-05,-5.5e-07,0.0,0 STARLINK-5147,1 53985U 22125X   23165.88481610 -.00000055  00000-0  14623-4 0  9996,2 53985  53.2180  18.1628 0001116  95.6944 264.4175 15.08837027 38677,6917.889,95.438,540.527,538.982,0.0
53985.0,STARLINK-5147,PAYLOAD,2023-06-15 09:57:13,15.08834857,0.0001127,53.2174,15.7844,90.6088,269.5033,6.6151e-05,7.65e-06,0.0,0 STARLINK-5147,1 53985U 22125X   23166.41473771  .00000765  00000-0  66151-4 0  9995,2 53985  53.2174  15.7844 0001127  90.6088 269.5033 15.08834857 38755,6917.896,95.438,540.541,538.981,0.0
53985.0,STARLINK-5147,PAYLOAD,2023-06-15 17:54:09,15.08837311,0.0001085,53.2177,14.2978,92.1867,267.925,1.5923e-05,-3.4e-07,0.0,0 STARLINK-5147,1 53985U 22125X   23166.74593868 -.00000034  00000-0  15923-4 0  9992,2 53985  53.2177  14.2978 0001085  92.1867 267.9250 15.08837311 38802,6917.889,95.438,540.504,539.003,0.0
53985.0,STARLINK-5147,PAYLOAD,2023-06-16 09:48:00,15.08839232,0.0001038,53.2179,11.3254,94.665,265.446,9.5966e-05,1.24e-05,0.0,0 STARLINK-5147,1 53985U 22125X   23167.40833516  .00001240  00000-0  95966-4 0  9997,2 53985  53.2179  11.3254 0001038  94.6650 265.4460 15.08839232 38972,6917.883,95.438,540.466,539.03,0.0
53985.0,STARLINK-5147,PAYLOAD,2023-06-16 17:44:55,15.0884765,0.0001038,53.218,9.8387,93.8649,266.2461,0.00012563,1.713e-05,0.0,0 STARLINK-5147,1 53985U 22125X   23167.73952873  .00001713  00000-0  12563-3 0  9997,2 53985  53.2180   9.8387 0001038  93.8649 266.2461 15.08847650 38953,6917.857,95.437,540.44,539.004,0.0
53985.0,STARLINK-5147,PAYLOAD,2023-06-16 20:55:41,15.08851929,0.000106,53.2178,9.244,93.5816,266.5297,0.00016339,2.314e-05,0.0,0 STARLINK-5147,1 53985U 22125X   23167.87200480  .00002314  00000-0  16339-3 0  9995,2 53985  53.2178   9.2440 0001060  93.5816 266.5297 15.08851929 39047,6917.844,95.437,540.442,538.976,0.0
53985.0,STARLINK-5147,PAYLOAD,2023-06-17 12:49:33,15.08834239,0.0001123,53.2179,6.2706,100.5845,259.5273,3.1369e-05,2.11e-06,0.0,0 STARLINK-5147,1 53985U 22125X   23168.53442044  .00000211  00000-0  31369-4 0  9998,2 53985  53.2179   6.2706 0001123 100.5845 259.5273 15.08834239 39075,6917.898,95.438,540.54,538.986,0.0
53985.0,STARLINK-5147,PAYLOAD,2023-06-17 16:00:20,15.08829293,0.0001437,53.2148,5.6741,96.5289,263.5867,4.5509e-05,4.36e-06,0.0,0 STARLINK-5147,1 53985U 22125X   23168.66690392  .00000436  00000-0  45509-4 0  9993,2 53985  53.2148   5.6741 0001437  96.5289 263.5867 15.08829293 39165,6917.913,95.438,540.772,538.784,0.0
53985.0,STARLINK-5147,PAYLOAD,2023-06-17 19:11:07,15.08820552,9.98e-05,53.2178,5.0811,80.9411,279.1694,-8.3926e-05,-1.622e-05,0.0,0 STARLINK-5147,1 53985U 22125X   23168.79939497 -.00001622  00000-0 -83926-4 0  9994,2 53985  53.2178   5.0811 0000998  80.9411 279.1694 15.08820552 39187,6917.94,95.439,540.495,539.114,0.0
53985.0,STARLINK-5147,PAYLOAD,2023-06-18 06:18:49,15.0883262,0.000101,53.2178,2.9993,84.187,275.9237,-9.3618e-06,-4.37e-06,0.0,0 STARLINK-5147,1 53985U 22125X   23169.26306844 -.00000437  00000-0 -93618-5 0  9994,2 53985  53.2178   2.9993 0001010  84.1870 275.9237 15.08832620 39259,6917.903,95.438,540.467,539.069,0.0
53985.0,STARLINK-5147,PAYLOAD,2023-06-18 12:40:21,15.08837727,0.0001016,53.218,1.8094,81.921,278.1898,3.0782e-05,2.02e-06,0.0,0 STARLINK-5147,1 53985U 22125X   23169.52802555  .00000202  00000-0  30782-4 0  9993,2 53985  53.2180   1.8094 0001016  81.9210 278.1898 15.08837727 39229,6917.887,95.438,540.455,539.049,0.0
53985.0,STARLINK-5147,PAYLOAD,2023-06-18 15:51:07,15.08838849,0.0001074,53.2169,1.2146,77.0833,283.0279,9.5951e-05,1.24e-05,0.0,0 STARLINK-5147,1 53985U 22125X   23169.66050403  .00001240  00000-0  95951-4 0  9997,2 53985  53.2169   1.2146 0001074  77.0833 283.0279 15.08838849 39313,6917.884,95.438,540.492,539.006,0.0
53985.0,STARLINK-5147,PAYLOAD,2023-06-18 19:01:53,15.08841368,9.99e-05,53.2169,0.6202,77.9832,282.1272,0.0001443,2.01e-05,0.0,0 STARLINK-5147,1 53985U 22125X   23169.79298279  .00002010  00000-0  14430-3 0  9994,2 53985  53.2169   0.6202 0000999  77.9832 282.1272 15.08841368 39269,6917.876,95.437,540.432,539.05,0.0
53985.0,STARLINK-5147,PAYLOAD,2023-06-18 23:48:02,15.08848861,9.98e-05,53.2168,359.7279,82.4197,277.6908,0.00020249,2.937e-05,0.0,0 STARLINK-5147,1 53985U 22125X   23169.99169955  .00002937  00000-0  20249-3 0  9997,2 53985  53.2168 359.7279 0000998  82.4197 277.6908 15.08848861 39365,6917.853,95.437,540.409,539.028,0.0
53985.0,STARLINK-5147,PAYLOAD,2023-06-19 06:09:35,15.0884514,8.98e-05,53.2166,358.5385,79.86,280.2494,0.00039066,5.936e-05,0.0,0 STARLINK-5147,1 53985U 22125X   23170.25666407  .00005936  00000-0  39066-3 0  9991,2 53985  53.2166 358.5385 0000898  79.8600 280.2494 15.08845140 39408,6917.865,95.437,540.351,539.108,0.0
53985.0,STARLINK-5147,PAYLOAD,2023-06-19 18:52:40,15.08858216,0.0001038,53.2167,356.1591,73.0577,287.0528,0.00063709,9.871e-05,0.0,0 STARLINK-5147,1 53985U 22125X   23170.78658128  .00009871  00000-0  63709-3 0  9993,2 53985  53.2167 356.1591 0001038  73.0577 287.0528 15.08858216 39410,6917.825,95.436,540.408,538.972,0.0
